{
  "norad_id": 63153,
  "name": "SEDNA-2",
  "history": [
    {
      "epoch": "2026-03-28T22:36:18.094176Z",
      "apogee_km": 539.6097196937972,
      "perigee_km": 527.8754217465857,
      "latitude_deg": 4.4393724589835554e-05,
      "longitude_deg": -1.9613895597092308,
      "height_km": 531.0757044669335,
      "semi_major_axis_km": 6911.879570720192,
      "eccentricity": 0.00084885,
      "inclination_deg": 97.4592,
      "raan_deg": 163.4691,
      "arg_perigee_deg": 348.2535,
      "mean_anomaly_deg": 11.8496,
      "mean_motion_rev_day": 15.10805364
    },
    {
      "epoch": "2026-03-29T04:57:47.685888Z",
      "apogee_km": 539.5837187258267,
      "perigee_km": 527.8487742839106,
      "latitude_deg": -4.011896348124036e-08,
      "longitude_deg": -97.3375053051226,
      "height_km": 531.0695745184647,
      "semi_major_axis_km": 6911.853246504868,
      "eccentricity": 0.0008489,
      "inclination_deg": 97.4592,
      "raan_deg": 163.7274,
      "arg_perigee_deg": 347.3156,
      "mean_anomaly_deg": 12.7859,
      "mean_motion_rev_day": 15.10813995
    }
  ]
}